[{"OBJECT_NAME":"STARLINK-11715 [DTC]","OBJECT_ID":"2025-107N","EPOCH":"2026-03-09T10:56:50.457120","MEAN_MOTION":15.7091645,"ECCENTRICITY":3.906e-5,"INCLINATION":42.9999,"RA_OF_ASC_NODE":99.4291,"ARG_OF_PERICENTER":331.6636,"MEAN_ANOMALY":28.421,"EPHEMERIS_TYPE":0,"CLASSIFICATION_TYPE":"U","NORAD_CAT_ID":64076,"ELEMENT_SET_NO":999,"REV_AT_EPOCH":4726,"BSTAR":0.0024373248,"MEAN_MOTION_DOT":0.0032594,"MEAN_MOTION_DDOT":0},{"OBJECT_NAME":"CZ-2F R\/B","OBJECT_ID":"2026-024B","EPOCH":"2026-03-09T21:33:36.475776","MEAN_MOTION":15.34345765,"ECCENTRICITY":0.01743731,"INCLINATION":49.9895,"RA_OF_ASC_NODE":13.5528,"ARG_OF_PERICENTER":275.7155,"MEAN_ANOMALY":82.3946,"EPHEMERIS_TYPE":0,"CLASSIFICATION_TYPE":"U","NORAD_CAT_ID":67690,"ELEMENT_SET_NO":999,"REV_AT_EPOCH":472,"BSTAR":0.00037009281,"MEAN_MOTION_DOT":0.00020274,"MEAN_MOTION_DDOT":0}]
